#aV2016  5  9  0  0  0.00000000     288 DD+AD WGS84 FIT  NGA
## 1896  86400.00000000   300.00000000 57517 0.0000000000000
+   31     1  2  3  5  6  7  8  9 10 11 12 13 14 15 16 17 18
+         19 20 21 22 23 24 25 26 27 28 29 30 31 32  0  0  0
+          0  0  0  0  0  0  0  0  0  0  0  0  0  0  0  0  0
+          0  0  0  0  0  0  0  0  0  0  0  0  0  0  0  0  0
+          0  0  0  0  0  0  0  0  0  0  0  0  0  0  0  0  0
++         2  2  2  2  2  2  2  2  2  2  2  2  2  2  2  2  2
++         2  2  2  2  2  2  2  2  2  2  2  2  2  2  0  0  0
++         0  0  0  0  0  0  0  0  0  0  0  0  0  0  0  0  0
++         0  0  0  0  0  0  0  0  0  0  0  0  0  0  0  0  0
++         0  0  0  0  0  0  0  0  0  0  0  0  0  0  0  0  0
%c cc cc ccc ccc cccc cccc cccc cccc ccccc ccccc ccccc ccccc
%c cc cc ccc ccc cccc cccc cccc cccc ccccc ccccc ccccc ccccc
%f  0.0000000  0.000000000  0.00000000000  0.000000000000000
%f  0.0000000  0.000000000  0.00000000000  0.000000000000000
%i    0    0    0    0      0      0      0      0         0
%i    0    0    0    0      0      0      0      0         0
/*      NGA, ST. LOUIS,MO.                                  
/*   EPHEMERIS COMPUTED FROM 2 DAYS OF DATA                 
/*   EPOCHA v2.4 SMOOTHER                                   
/*   G1762 IERS2010 SATAF SATAPC                            
*  2016  5  9 11 35  0.00000000
P  1 -15036.991881   2095.374455  21725.640691     19.826039                    
V  1  -6887.671842 -26880.953439  -1937.922798      0.011991                    
P  2  14488.261837  19168.922264 -11302.286215    592.824625                    
V  2   1802.910501  15047.714740  26407.230244     -0.021316                    
P  3 -21690.715641  11211.296807  10468.587026    -55.923849                    
V  3   7646.993725 -11149.998116  27796.164903     -0.038336                    
P  5  14792.915932   6671.442558 -21122.083195   -122.288698                    
V  5 -18286.254727  19447.259400  -6487.812832      0.030799                    
P  6   5825.095092  25867.143592   1544.118959    187.648345                    
V  6  -3132.870846  -1172.040152  31743.292108      0.055424                    
P  7  -7729.787283  18448.251548 -17131.219883    455.605990                    
V  7  -7033.518614 -21101.003404 -19791.655059     -0.021502                    
P  8 -25942.097365  -5515.218839   1822.643227    -34.450628                    
V  8  -1487.948252  -3179.730868 -31676.829406     -0.014386                    
P  9 -15457.430186   9959.012382 -19186.994098    125.670386                    
V  9 -23192.348939  -7519.654459  14775.941448      0.073613                    
P 10   6182.020675 -21042.039599  14955.679328    -18.099693                    
V 10  14910.761585 -11944.195247 -23060.469274     -0.091556                    
P 11 -19188.971395  -2351.054886  17675.805130   -646.200263                    
V 11 -11951.255989 -20736.567934 -15219.344114     -0.014599                    
P 12  21527.655273  -7628.510141  13238.851550    379.100118                    
V 12 -11577.439551  12646.878438  26067.803837      0.012646                    
P 13  22679.816830  12774.762211  -5164.584394    -16.611012                    
V 13  -6854.485015    -77.083970 -31160.355353     -0.026406                    
P 14  -5617.021602 -16783.281730  20113.552270    -12.855748                    
V 14  23804.051105   7411.586867  12841.385553     -0.020828                    
P 15  26274.343366   2106.044272   4409.301899   -310.103707                    
V 15   4913.047600   4478.844156 -30201.442865     -0.016752                    
P 16 -13293.577691  -7478.914878 -21896.279224    -18.828775                    
V 16  20647.879925 -18037.675983  -6026.281476      0.026444                    
P 17   1513.423052  15831.213263  21632.375020   -203.627575                    
V 17 -25473.716907  -7718.521895   7366.846538     -0.001884                    
P 18  14893.086199 -21350.915589   5052.347453    513.633278                    
V 18   6911.706159  -1506.071573 -30211.768300      0.042362                    
P 19  11754.176675  16530.178876  16702.206942   -525.704442                    
V 19 -21051.383773  -5911.163645  20742.399193      0.000259                    
P 20  21049.313263  -8680.579308 -13863.478840    411.108965                    
V 20  -9076.625402  15161.294883 -23482.067345      0.023763                    
P 21   4560.221368 -21388.370667 -14146.865263   -522.042750                    
V 21   8426.669468  17767.703245 -23193.883304     -0.013109                    
P 22 -20304.490917   2480.658656  17249.915168    346.142117                    
V 22  13163.649229 -17171.589251  18086.920249     -0.079871                    
P 23 -23544.334538   2795.306438 -12220.678087   -172.999270                    
V 23 -14514.473931  -6406.326394  25656.018811     -0.016725                    
P 24  16108.195208   1470.066620  21037.008989    -16.767346                    
V 24   6901.184921  25961.728747  -6887.630334     -0.005588                    
P 25  19931.158996 -17155.804462   2756.380978   -168.126163                    
V 25   -902.027710   4294.806525  32016.313364     -0.070528                    
P 26  -4651.804832 -15917.723503 -20742.388508   -358.273439                    
V 26  19163.766209 -18089.241143   9633.215628     -0.126352                    
P 27 -22131.362789 -12037.801277  -8707.592637     90.629620                    
V 27  11134.806190    746.433342 -29267.874628      0.040254                    
P 28  -8643.129868  20467.853851  15145.048896    521.772528                    
V 28 -14571.135530  10798.913029 -23953.537774      0.026722                    
P 29  18455.595981  -6604.135466 -17889.527401    657.180522                    
V 29  21136.894341   8423.271087  18730.587963     -0.000020                    
P 30  -1829.160623  24814.203016  -9162.707684    123.759583                    
V 30  -5046.745094 -10903.175461 -28646.212105      0.031957                    
P 31  -6835.120699 -25416.836069  -1383.751200    269.864221                    
V 31   2299.862196  -2478.168496  32161.664445     -0.018377                    
P 32  -4306.742746 -16106.585629  20683.745397     -3.549962                    
V 32  25603.907927   5850.893419   9879.165731     -0.053496                    
EOF
